P/2019 LM4 (Palomar),e,36.4173,72.8410,68.2680,5.704500,0.0723399,0.58536106,126.5709,04/02.0/2024,2000,g  9.5,4.0
# From MPC118095
C/2019 LB7 (Kleyna),e,164.2886,3.9194,336.6677,34.84868,0.0047910,0.92840111,8.7842,04/02.0/2024,2000,g 17.0,4.0
# From MPEC 2024-DC6
P/2019 M2 (ATLAS),e,12.2665,307.6113,332.5264,3.029915,0.1868781,0.64729008,326.5162,04/02.0/2024,2000,g 21.2,4.0
# From MPC118095
C/2019 M3 (ATLAS),e,99.5674,154.9736,87.9187,4871,0.0000029,0.99950222,0.0000,12/31.4105/2018,2000,g 12.2,4.0
# From MPEC 2023-JA2
C/2019 M4 (TESS),h,09/11.5665/2019,65.6783,52.6494,260.3702,1.002396,9.190143,2000,5.0,4.0
# From MPEC 2023-C45
C/2019 N1 (ATLAS),e,82.4508,13.5587,193.3783,1169,0.0000247,0.99854218,0.0000,11/30.9135/2020,2000,g  7.5,4.0
# From MPEC 2023-CD8
A/2019 N2,e,89.3508,276.1812,347.1568,1422,0.0000184,0.99863198,0.0000,08/22.6515/2019,2000,g 12.5,2.0
# From MPEC 2022-A21
C/2019 NJ3 (Lemmon),h,10/22.7419/2020,99.3883,142.4834,246.8937,1.001925,4.363391,2000,9.0,4.0
# From MPEC 2024-E07
C/2019 O2 (PANSTARRS),e,93.3124,48.2577,129.6094,58.34178,0.0022117,0.83403993,0.7993,04/02.0/2024,2000,g  5.0,4.0
# From MPEC 2024-F34
C/2019 O3 (Palomar),h,03/09.5362/2021,89.8109,300.4487,60.1309,1.004142,8.821384,2000,3.5,4.0
# From MPEC 2021-P47
A/2019 O4,e,115.0675,354.9283,61.8687,33.25903,0.0051385,0.89036851,7.7698,04/02.0/2024,2000,g 15.5,2.0
# From MPEC 2024-EF7
C/2019 Q1 (Lemmon),h,07/21.3546/2020,155.7312,42.4566,56.2403,1.001629,5.004927,2000,8.5,4.0
# From MPC117072
A/2019 Q2,e,159.0138,188.0436,176.4542,58.37714,0.0022097,0.97835231,0.0000,07/22.5529/2019,2000,g 18.0,2.0
# From MPC117072
P/2019 S2 (PANSTARRS),e,10.4646,93.1856,217.0818,4.745073,0.0953542,0.20507185,178.1224,04/02.0/2024,2000,g 13.5,4.0
# From MPEC 2022-CN4
P/2019 S3 (PANSTARRS),e,8.6938,150.1634,213.0657,3.415187,0.1561645,0.47100728,262.2378,04/02.0/2024,2000,g 18.3,4.0
# From MPEC 2021-S45
C/2019 S4 (Lemmon),e,92.1052,63.1581,71.3723,240.2101,0.0002647,0.98567208,0.0000,04/08.4745/2020,2000,g 11.0,4.0
# From MPEC 2023-N01
A/2019 T1,e,120.8615,6.9436,91.0484,38.83710,0.0040722,0.88981750,4.7767,04/02.0/2024,2000,g 13.0,2.0
# From MPEC 2023-R20
C/2019 T2 (Lemmon),e,111.4385,155.6556,239.4235,5015,0.0000028,0.99947251,0.0000,04/22.6595/2021,2000,g  9.0,4.0
# From MPEC 2023-UR6
C/2019 T3 (ATLAS),e,121.8433,139.5330,112.4609,3369,0.0000050,0.99823322,0.0000,03/04.3069/2021,2000,g  6.8,4.0
# From MPEC 2024-F34
C/2019 T4 (ATLAS),e,53.6294,199.9337,351.1332,898.6440,0.0000366,0.99528137,0.0000,06/08.7342/2022,2000,g  5.0,4.0
# From MPEC 2021-P47
P/2019 T5 (ATLAS),e,33.4946,247.6129,189.5846,8.001299,0.0435475,0.80979069,74.2226,04/02.0/2024,2000,g 15.0,4.0
# From MPEC 2021-P47
P/2019 T6 (PANSTARRS),e,18.6990,71.2477,329.0115,5.439920,0.0776811,0.62300324,124.7561,04/02.0/2024,2000,g 15.5,4.0
# From MPC118096
P/2019 U4 (PANSTARRS),e,11.6981,200.0187,181.0436,3.519745,0.1492579,0.47597104,247.1161,04/02.0/2024,2000,g 19.0,4.0
# From MPEC 2024-F34
C/2019 U5 (PANSTARRS),h,03/29.7105/2023,113.5149,2.6324,181.4712,1.000960,3.623914,2000,4.5,4.0
# From MPEC 2022-H04
C/2019 U6 (Lemmon),e,60.9659,235.7888,329.5021,319.6580,0.0001725,0.99714991,0.0000,06/18.2765/2020,2000,g 10.0,4.0
# From MPEC 2022-N37
C/2019 V1 (Borisov),e,61.9339,83.1511,51.1710,1805,0.0000129,0.99828581,0.0000,07/16.7887/2020,2000,g 11.0,4.0
# From MPEC 2022-L66
P/2019 V2 (Groeller),e,11.8074,189.1747,335.6551,7.495985,0.0480243,0.33132518,60.6658,04/02.0/2024,2000,g 10.0,4.0
# From MPEC 2023-A50
P/2019 W1 (PANSTARRS),e,23.4745,35.3758,18.7924,4.548811,0.1015915,0.26729246,181.7040,04/02.0/2024,2000,g 12.9,4.0
# From MPEC 2021-P47
P/2019 X1 (Pruyne),e,10.2501,43.6797,36.8545,6.175954,0.0642167,0.30393205,110.1152,04/02.0/2024,2000,g 10.4,4.0
# From MPEC 2020-C98
P/2019 X2 (Pan-STARRS),e,15.8953,250.8404,213.4545,3.635878,0.1421642,0.50011098,223.8886,04/02.0/2024,2000,g 18.0,4.0
# From MPC119999
C/2019 Y1 (ATLAS),e,73.3723,31.5373,57.9098,87.27126,0.0012089,0.99051422,0.0000,03/16.4817/2020,2000,g 13.7,4.0
# From MPEC 2020-C98
P/2019 Y3 (Catalina),e,24.6007,139.3024,2.5781,3.014462,0.1883169,0.69114151,296.8781,04/02.0/2024,2000,g 18.5,4.0
# From MPEC 2024-A43
C/2019 Y4 (ATLAS),e,45.0932,120.7203,177.4424,352.8047,0.0001487,0.99927359,0.0000,05/30.5399/2020,2000,g 11.8,6.0
# From MPEC 2020-L06
C/2019 Y4-A (ATLAS),h,05/30.5752/2020,45.5329,121.0843,177.2761,1.001408,0.254442,2000,11.6,6.0
# From MPEC 2023-J29
C/2019 Y4-B (ATLAS),h,05/30.5487/2020,45.2231,120.8272,177.3868,1.000004,0.255755,2000,12.1,6.0
# From MPEC 2020-L06
C/2019 Y4-C (ATLAS),h,05/30.5277/2020,45.3158,120.8112,177.3093,1.002135,0.255516,2000,12.7,6.0
# From MPEC 2020-L06
C/2019 Y4-D (ATLAS),e,45.3637,121.1802,177.4486,68.14162,0.0017522,0.99626036,0.0000,05/30.6485/2020,2000,g 12.5,6.0
# From MPEC 2023-A50
C/2019 Y5 (PANSTARRS),e,82.7612,51.7502,303.6042,719.7150,0.0000510,0.99315662,0.0000,08/17.4633/2019,2000,g 11.0,4.0
# From MPEC 2023-A50
A/2020 A1,e,149.0337,119.1447,302.4393,25.53984,0.0076362,0.93472844,12.0912,04/02.0/2024,2000,g 18.0,2.0
# From MPEC 2022-YN2
C/2020 A2 (Iwamoto),e,120.5679,286.2468,68.0413,1190,0.0000240,0.99918176,0.0000,01/08.2019/2020,2000,g 13.5,4.0
# From MPEC 2023-A50
C/2020 A3 (ATLAS),h,06/28.4607/2019,146.6467,120.8044,268.3088,1.000162,5.755918,2000,8.0,4.0
# From MPEC 2022-P91
P/2020 A4 (PANSTARRS-Lemmon),e,24.9933,312.3438,144.7983,8.196459,0.0420015,0.65432450,66.8414,04/02.0/2024,2000,g 15.0,4.0
# From MPEC 2020-N08
A/2020 B1,e,18.5250,309.9019,154.7556,51.63831,0.0026561,0.96632785,4.1385,04/02.0/2024,2000,g 21.0,2.0
# From MPEC 2020-HN5
C/2020 B2 (Lemmon),e,55.7524,354.2670,143.5948,67.66719,0.0017707,0.95923462,2.7042,04/02.0/2024,2000,g 10.0,4.0
# From MPEC 2022-N37
C/2020 B3 (Rankin),e,20.7083,185.8222,324.8835,947.2188,0.0000338,0.99648261,0.0000,10/19.8015/2019,2000,g 13.0,4.0
# From MPEC 2023-KD6
P/2020 B4 (Sheppard),e,11.6073,185.9737,341.9930,7.968140,0.0438196,0.19217418,37.9375,04/02.0/2024,2000,g 10.5,4.0
# From MPEC 2024-F34
C/2020 F2 (ATLAS),h,07/13.9286/2022,163.5895,250.3017,48.2917,1.004615,8.815220,2000,4.5,4.0
# From MPEC 2021-O56
C/2020 F3 (NEOWISE),e,129.1469,61.0939,37.3900,378.8171,0.0001337,0.99922141,0.0000,07/04.1628/2020,2000,g  7.5,5.2
# From MPEC 2024-BE0
C/2020 F5 (MASTER),e,52.2096,350.5046,310.6751,170.2990,0.0004435,0.97459528,0.0000,03/16.9983/2021,2000,g  6.5,3.2
# From MPEC 2020-L06
C/2020 F6 (PANSTARRS),e,174.5832,207.8923,344.4626,377.1447,0.0001346,0.99071644,0.0000,04/11.4136/2020,2000,g 14.5,2.8
# From MPEC 2024-A43
C/2020 F7 (Lemmon),e,93.9587,321.8512,227.9505,555.7839,0.0000752,0.99040514,0.0000,11/13.6267/2021,2000,g  7.0,4.0
# From MPEC 2023-J29
C/2020 F8 (SWAN),h,05/26.8337/2020,110.5786,259.8286,68.0745,1.000138,0.430189,2000,10.0,4.0
# From MPEC 2020-L06
P/2020 G1 (Pimentel),e,18.5113,240.1103,207.6174,3.607726,0.1438314,0.86065769,212.2654,04/02.0/2024,2000,g 17.0,4.0
# From MPEC 2022-YB4
C/2020 H2 (Pruyne),e,124.8392,277.6704,26.6294,185.0735,0.0003915,0.99551674,0.0000,04/27.6879/2020,2000,g 14.0,3.2
# From MPEC 2020-HM1
C/2020 H3 (Wierzchos),p,06/05.7162/2020,62.5292,30.4456,2.300288,270.6227,2000,13.5,4.0
# From MPEC 2020-L06
C/2020 H4 (Leonard),e,84.4970,307.5851,117.5202,47.81694,0.0029808,0.98066080,0.0000,08/29.5854/2020,2000,g 15.0,3.2
# From MPEC 2024-F34
C/2020 H5 (Robinson),e,70.2530,210.6267,326.2980,4504,0.0000033,0.99792659,0.0000,12/10.2089/2020,2000,g  5.0,4.0
# From MPEC 2024-AF0
C/2020 H6 (ATLAS),e,79.9783,213.7180,20.2559,3377,0.0000050,0.99860823,0.0000,09/30.2303/2021,2000,g  8.0,3.2
# From MPEC 2020-KB7
C/2020 H7 (Lemmon),e,135.9235,323.5194,82.6780,1405,0.0000187,0.99685380,0.0000,06/02.9510/2020,2000,g 11.0,4.0
# From MPEC 2021-N06
C/2020 H8 (PANSTARRS),e,99.7037,68.4407,128.9017,599.6946,0.0000671,0.99221040,0.0000,06/04.5807/2020,2000,g 10.5,4.0
# From MPEC 2022-ED3
A/2020 H9,e,137.8786,213.1775,312.7604,362.1900,0.0001430,0.99290786,0.0000,12/21.8764/2019,2000,g 18.0,2.0
# From MPEC 2023-HN7
C/2020 H11 (PANSTARRS-Lemmon),h,09/14.2572/2020,151.3892,303.0475,91.4274,1.001481,7.624130,2000,8.5,4.0
# From MPEC 2023-KD6
C/2020 J1 (SONEAR),h,04/18.5225/2021,142.3059,226.6100,341.6877,1.000442,3.349906,2000,8.5,3.2
# From MPEC 2024-F34
C/2020 K1 (PANSTARRS),e,89.6731,94.3621,213.9819,8469,0.0000013,0.99963712,0.0000,05/09.0539/2023,2000,g  5.5,4.0
# From MPEC 2021-N06
C/2020 K2 (PANSTARRS),h,08/05.9080/2020,91.0064,288.4134,67.3439,1.002678,8.880578,2000,10.8,4.0
# From MPEC 2020-KF9
C/2020 K3 (Leonard),p,06/01.0032/2020,129.0152,64.4924,1.583069,28.3546,2000,14.5,4.0
# From MPEC 2020-L06
C/2020 K4 (PANSTARRS),e,125.5853,264.2479,308.8570,23.96816,0.0083995,0.92695421,12.5122,04/02.0/2024,2000,g 16.5,4.0
# From MPEC 2021-R75
C/2020 K5 (PANSTARRS),h,06/05.1432/2021,67.0861,86.1507,249.6272,1.001168,1.538149,2000,11.0,4.0
# From MPEC 2023-N01
C/2020 K6 (Rankin),h,09/15.6354/2021,103.6435,291.5771,44.3275,1.003347,5.868277,2000,8.0,4.0
# From MPEC 2023-A50
C/2020 K7 (PANSTARRS),e,32.0441,286.1056,358.2030,96.82969,0.0010344,0.93396715,1.6746,04/02.0/2024,2000,g  8.0,4.0
# From MPEC 2021-P47
C/2020 K8 (Catalina-ATLAS),h,09/15.2002/2020,31.4382,181.4831,259.9854,1.000238,0.471127,2000,15.0,3.2
# From MPEC 2021-BE3
P/2020 K9 (Lemmon-PANSTARRS),e,23.2029,166.3132,197.0680,4.204942,0.1143047,0.32085935,130.8446,04/02.0/2024,2000,g 12.5,4.0
# From MPEC 2023-C45
P/2020 M1 (PANSTARRS),e,8.5334,142.6026,72.6101,5.315551,0.0804232,0.47306710,125.5369,04/02.0/2024,2000,g 14.5,4.0
# From MPEC 2022-H30
C/2020 M3 (ATLAS),e,23.4707,71.1756,328.5864,27.20974,0.0069441,0.95331689,8.7079,04/02.0/2024,2000,g 14.5,4.0
# From MPEC 2023-N01
A/2020 M4,h,11/23.8295/2020,160.1180,348.6233,104.5824,1.000852,5.946977,2000,14.5,2.0
# From MPC xxxxx
P/2020 MK4 (PANSTARRS),e,6.7876,0.6992,94.7115,6.216742,0.0635857,0.01335990,288.0868,04/02.0/2024,2000,g  8.0,4.0
# From MPEC 2023-FK0
C/2020 M5 (ATLAS),h,08/19.8585/2021,93.2034,352.0718,126.2694,1.000297,3.000899,2000,9.0,4.0
# From MPEC 2022-GA9
